     2.100          NAVIGATION                              RINEX VERSION / TYPE
fic2rin                                 04/06/2014 00:20:42 PGM / RUN BY / DATE
                                                            END OF HEADER
 7 14  4  5  8  0  0.0  .331832095981D-03  .420641299570D-11  .000000000000D+00
     .660000000000D+02  .283750000000D+02  .426553481950D-08  .276652693396D+01
     .149756669998D-05  .714807375334D-02  .422820448875D-05  .515363895798D+04
     .547200000000D+06 -.109896063805D-06  .246507338832D+01 -.465661287308D-07
     .973723880925D+00  .304375000000D+03 -.283995379865D+01 -.805176395972D-08
     .664313385605D-10  .100000000000D+01  .178600000000D+04  .000000000000D+00
     .240000000000D+01  .000000000000D+00 -.107102096081D-07  .660000000000D+02
     .540006000000D+06  .400000000000D+01
 8 14  4  5  8  0  0.0  .127018429339D-04  .227373675443D-12  .000000000000D+00
     .720000000000D+02  .145625000000D+02  .375515641734D-08  .221033072039D+01
     .707805156708D-06  .135809461353D-01  .430457293987D-05  .515348444748D+04
     .547200000000D+06 -.290572643280D-06  .256331507115D+01  .577419996262D-07
     .996976549789D+00  .317000000000D+03 -.278240786792D+01 -.784818405122D-08
    -.221437795202D-10  .100000000000D+01  .178600000000D+04  .000000000000D+00
     .240000000000D+01  .000000000000D+00 -.419095158577D-08  .720000000000D+02
     .540006000000D+06  .400000000000D+01
11 14  4  5  8  0  0.0 -.478046480566D-03 -.318323145621D-11  .000000000000D+00
     .270000000000D+02 -.318750000000D+01  .637705134407D-08  .295881391473D+01
    -.290572643280D-06  .148399686441D-01  .653043389320D-05  .515369665337D+04
     .547200000000D+06  .180676579475D-06 -.101564672432D+01 -.247731804848D-06
     .890093045594D+00  .212437500000D+03  .127342224671D+01 -.865036032223D-08
     .240724312848D-09  .100000000000D+01  .178600000000D+04  .000000000000D+00
     .240000000000D+01  .000000000000D+00 -.116415321827D-07  .270000000000D+02
     .540006000000D+06  .400000000000D+01
12 14  4  5  8  0  0.0  .196625478566D-03  .238742359215D-11  .000000000000D+00
     .420000000000D+02 -.674062500000D+02  .380515850013D-08  .237418216078D+01
    -.345334410667D-05  .505181076005D-02  .736676156521D-05  .515365244484D+04
     .547200000000D+06 -.143423676491D-06 -.275624739482D+01 -.558793544769D-08
     .987374357820D+00  .248781250000D+03  .380530049278D+00 -.778496713227D-08
     .264296723305D-10  .100000000000D+01  .178600000000D+04  .000000000000D+00
     .240000000000D+01  .000000000000D+00 -.121071934700D-07  .420000000000D+02
     .540006000000D+06  .400000000000D+01
13 14  4  5  8  0  0.0  .129649415612D-04 -.386535248253D-11  .000000000000D+00
     .100000000000D+02  .707187500000D+02  .402231040252D-08 -.116440535007D+01
     .363588333130D-05  .535563740414D-02  .833906233311D-05  .515361122894D+04
     .547200000000D+06 -.763684511185D-07  .149993918450D+01  .465661287308D-07
     .977891915935D+00  .229093750000D+03  .221837486950D+01 -.786854204207D-08
     .289297764699D-10  .100000000000D+01  .178600000000D+04  .000000000000D+00
     .240000000000D+01  .000000000000D+00 -.111758708954D-07  .100000000000D+02
     .540006000000D+06  .400000000000D+01
14 14  4  5  8  0  0.0  .184385571629D-03 -.329691829393D-11  .000000000000D+00
     .300000000000D+02  .852187500000D+02  .420731810883D-08 -.831307869641D+00
     .438466668129D-05  .732867664192D-02  .804848968983D-05  .515364605713D+04
     .547200000000D+06 -.931322574615D-08  .146843647105D+01  .139698386192D-06
     .970483169205D+00  .231718750000D+03 -.199891588093D+01 -.807176479283D-08
    -.932181686252D-10  .100000000000D+01  .178600000000D+04  .000000000000D+00
     .240000000000D+01  .000000000000D+00 -.884756445885D-08  .300000000000D+02
     .540006000000D+06  .400000000000D+01
15 14  4  5  8  0  0.0 -.172150321305D-03 -.216004991671D-11  .000000000000D+00
     .620000000000D+02  .753437500000D+02  .487413159857D-08 -.143288960103D+01
     .388734042645D-05  .623756134883D-02  .783987343311D-05  .515367115021D+04
     .547200000000D+06  .149011611938D-07  .135810004570D+01 -.145286321640D-06
     .937128376598D+00  .218093750000D+03  .273074296881D+00 -.818534095231D-08
    -.567880797372D-10  .100000000000D+01  .178600000000D+04  .000000000000D+00
     .240000000000D+01  .000000000000D+00 -.102445483208D-07  .620000000000D+02
     .540006000000D+06  .400000000000D+01
16 14  4  5  8  0  0.0 -.224641989917D-03  .170530256582D-11  .000000000000D+00
     .500000000000D+02 -.737500000000D+02  .385158900557D-08  .198290044628D+00
    -.370666384697D-05  .770703481976D-02  .668875873089D-05  .515356697845D+04
     .547200000000D+06  .135973095894D-06 -.273772395097D+01  .465661287308D-07
     .987984717963D+00  .264062500000D+03  .171683188414D+00 -.795533137148D-08
    -.821462788651D-11  .100000000000D+01  .178600000000D+04  .000000000000D+00
     .240000000000D+01  .000000000000D+00 -.977888703346D-08  .500000000000D+02
     .540006000000D+06  .400000000000D+01
17 14  4  5  8  0  0.0 -.823959708214D-04 -.318323145621D-11  .000000000000D+00
     .780000000000D+02 -.185000000000D+02  .446090010011D-08 -.772260443679D+00
    -.780448317528D-06  .927045929711D-02  .876002013683D-05  .515357298088D+04
     .547200000000D+06 -.111758708954D-07 -.170522487705D+01  .163912773132D-06
     .967891830728D+00  .217687500000D+03 -.210662978570D+01 -.802962018020D-08
     .348943106310D-09  .100000000000D+01  .178600000000D+04  .000000000000D+00
     .240000000000D+01  .000000000000D+00 -.102445483208D-07  .780000000000D+02
     .540006000000D+06  .400000000000D+01
18 14  4  5  8  0  0.0  .311354175210D-03  .227373675443D-11  .000000000000D+00
     .410000000000D+02  .528125000000D+01  .551630120466D-08  .863194188006D+00
     .411644577980D-06  .150159263285D-01  .897794961929D-05  .515368176079D+04
     .547200000000D+06 -.175088644028D-06  .338983500595D+00  .106170773506D-06
     .926420452628D+00  .194000000000D+03 -.205105031823D+01 -.868393314924D-08
    -.519307345521D-09  .100000000000D+01  .178600000000D+04  .000000000000D+00
     .240000000000D+01  .000000000000D+00 -.107102096081D-07  .410000000000D+02
     .540006000000D+06  .400000000000D+01
19 14  4  5  8  0  0.0 -.449127517641D-03 -.238742359215D-11  .000000000000D+00
     .800000000000D+02 -.296875000000D+02  .445447126089D-08 -.153305402050D+01
    -.173784792423D-05  .101424145978D-01  .887177884579D-05  .515359671783D+04
     .547200000000D+06  .108033418655D-06 -.165422680087D+01 -.121071934700D-06
     .965010146900D+00  .206968750000D+03  .411193343259D+00 -.787211361942D-08
     .485734518507D-09  .100000000000D+01  .178600000000D+04  .000000000000D+00
     .240000000000D+01  .000000000000D+00 -.149011611938D-07  .800000000000D+02
     .540006000000D+06  .400000000000D+01
20 14  4  5  8  0  0.0  .176660716534D-03  .363797880709D-11  .000000000000D+00
     .820000000000D+02 -.403125000000D+01  .543236913712D-08  .141512638158D+01
    -.378116965294D-06  .585894740652D-02  .816397368908D-05  .515353894997D+04
     .547200000000D+06 -.124797224998D-06  .285870096071D+00 -.949949026108D-07
     .927397996432D+00  .204687500000D+03  .131617553750D+01 -.844856620241D-08
    -.380372986919D-09  .100000000000D+01  .178600000000D+04  .000000000000D+00
     .340000000000D+01  .000000000000D+00 -.791624188423D-08  .820000000000D+02
     .540006000000D+06  .400000000000D+01
22 14  4  5  8  0  0.0  .224575400352D-03  .284217094304D-11  .000000000000D+00
     .105000000000D+03  .575000000000D+01  .556951770705D-08  .312893202218D+00
     .474974513054D-06  .700528686866D-02  .833347439766D-05  .515372765923D+04
     .547200000000D+06 -.149011611938D-07  .340969073953D+00  .409781932831D-07
     .924191293168D+00  .199000000000D+03 -.206587196637D+01 -.860714423639D-08
    -.452161691492D-09  .100000000000D+01  .178600000000D+04  .000000000000D+00
     .340000000000D+01  .000000000000D+00 -.172294676304D-07  .105000000000D+03
     .540006000000D+06  .400000000000D+01
23 14  4  5  8  0  0.0 -.978214666247D-05 -.318323145621D-11  .000000000000D+00
     .840000000000D+02  .715625000000D+02  .447732935588D-08 -.186004910055D+01
     .356696546078D-05  .908449455164D-02  .874511897564D-05  .515357411766D+04
     .547200000000D+06 -.521540641785D-07  .140400684952D+01 -.113621354103D-06
     .952154906422D+00  .206062500000D+03 -.279952274110D+01 -.795604568695D-08
     .157149403046D-10  .100000000000D+01  .178600000000D+04  .000000000000D+00
     .240000000000D+01  .000000000000D+00 -.200234353542D-07  .840000000000D+02
     .540006000000D+06  .400000000000D+01
24 14  4  5  8  0  0.0 -.261566601694D-04 -.682121026330D-12  .000000000000D+00
     .660000000000D+02  .198437500000D+02  .458804825348D-08 -.263199702396D+01
     .109896063805D-05  .202540471219D-02  .366382300854D-05  .515374172974D+04
     .547200000000D+06  .577419996262D-07  .243129137096D+01  .614672899246D-07
     .957086060945D+00  .308500000000D+03  .305090364375D+00 -.829034532616D-08
     .864321716755D-10  .100000000000D+01  .178600000000D+04  .000000000000D+00
     .240000000000D+01  .000000000000D+00  .325962901115D-08  .660000000000D+02
     .540006000000D+06  .400000000000D+01
25 14  4  5  8  0  0.0  .208695419133D-04  .113686837722D-11  .000000000000D+00
     .550000000000D+02 -.705625000000D+02  .410552815458D-08  .159396006633D+01
    -.374205410480D-05  .343499693554D-02  .682100653648D-05  .515363517570D+04
     .547200000000D+06 -.800937414169D-07 -.279805278638D+01  .894069671631D-07
     .976108620259D+00  .253000000000D+03  .629105812371D+00 -.802890586473D-08
    -.264296723305D-10  .100000000000D+01  .178600000000D+04  .000000000000D+00
     .240000000000D+01  .000000000000D+00  .558793544769D-08  .550000000000D+02
     .540006000000D+06  .400000000000D+01
